{"fetched_at":"2026-07-08T07:03:38.157Z","source":"https://celestrak.org/NORAD/elements/gp.php?GROUP=spire&FORMAT=JSON","constellation":"spire","records":[{"OBJECT_NAME":"LEMUR-1","OBJECT_ID":"2014-033AL","EPOCH":"2026-07-07T08:52:22.060992","CLASSIFICATION_TYPE":"U","MEAN_MOTION":14.85321522,"ECCENTRICITY":0.00484297,"INCLINATION":97.7901,"RA_OF_ASC_NODE":337.7295,"ARG_OF_PERICENTER":13.6614,"MEAN_ANOMALY":346.59,"EPHEMERIS_TYPE":0,"NORAD_CAT_ID":40044,"ELEMENT_SET_NO":999,"REV_AT_EPOCH":64846,"BSTAR":0.00017399467,"MEAN_MOTION_DOT":0.00001471,"MEAN_MOTION_DDOT":0},{"OBJECT_NAME":"LEMUR-2-GREENBERG","OBJECT_ID":"2017-042N","EPOCH":"2026-07-07T17:33:50.435136","CLASSIFICATION_TYPE":"U","MEAN_MOTION":15.31988787,"ECCENTRICITY":0.0007164,"INCLINATION":97.3832,"RA_OF_ASC_NODE":9.2717,"ARG_OF_PERICENTER":291.5288,"MEAN_ANOMALY":68.519,"EPHEMERIS_TYPE":0,"NORAD_CAT_ID":42837,"ELEMENT_SET_NO":999,"REV_AT_EPOCH":49153,"BSTAR":0.00035669,"MEAN_MOTION_DOT":0.00010951,"MEAN_MOTION_DDOT":0},{"OBJECT_NAME":"LEMUR-2-ANDIS","OBJECT_ID":"2017-042P","EPOCH":"2026-07-06T17:39:02.432448","CLASSIFICATION_TYPE":"U","MEAN_MOTION":15.3567897,"ECCENTRICITY":0.00071071,"INCLINATION":97.3685,"RA_OF_ASC_NODE":8.5318,"ARG_OF_PERICENTER":293.7973,"MEAN_ANOMALY":66.2525,"EPHEMERIS_TYPE":0,"NORAD_CAT_ID":42838,"ELEMENT_SET_NO":999,"REV_AT_EPOCH":49145,"BSTAR":0.00051664211,"MEAN_MOTION_DOT":0.00017878,"MEAN_MOTION_DDOT":0},{"OBJECT_NAME":"LEMUR-2-MONSON","OBJECT_ID":"2017-042Q","EPOCH":"2026-07-07T10:59:43.408320","CLASSIFICATION_TYPE":"U","MEAN_MOTION":15.28615242,"ECCENTRICITY":0.00051467,"INCLINATION":97.4095,"RA_OF_ASC_NODE":8.9398,"ARG_OF_PERICENTER":281.0533,"MEAN_ANOMALY":79.0128,"EPHEMERIS_TYPE":0,"NORAD_CAT_ID":42839,"ELEMENT_SET_NO":999,"REV_AT_EPOCH":49126,"BSTAR":0.00037280373,"MEAN_MOTION_DOT":0.00010309,"MEAN_MOTION_DDOT":0},{"OBJECT_NAME":"LEMUR-2-FURIAUS","OBJECT_ID":"2017-042R","EPOCH":"2026-07-07T17:45:16.770816","CLASSIFICATION_TYPE":"U","MEAN_MOTION":15.3095949,"ECCENTRICITY":0.0006573,"INCLINATION":97.3781,"RA_OF_ASC_NODE":7.1882,"ARG_OF_PERICENTER":358.8264,"MEAN_ANOMALY":1.2961,"EPHEMERIS_TYPE":0,"NORAD_CAT_ID":42840,"ELEMENT_SET_NO":999,"REV_AT_EPOCH":49135,"BSTAR":0.00038105,"MEAN_MOTION_DOT":0.00011334,"MEAN_MOTION_DDOT":0},{"OBJECT_NAME":"LEMUR-2-PETERG","OBJECT_ID":"2017-042S","EPOCH":"2026-07-07T10:45:59.616288","CLASSIFICATION_TYPE":"U","MEAN_MOTION":15.34821414,"ECCENTRICITY":0.00028628,"INCLINATION":97.4001,"RA_OF_ASC_NODE":13.5239,"ARG_OF_PERICENTER":258.0828,"MEAN_ANOMALY":102.0094,"EPHEMERIS_TYPE":0,"NORAD_CAT_ID":42841,"ELEMENT_SET_NO":999,"REV_AT_EPOCH":49154,"BSTAR":0.0004771216,"MEAN_MOTION_DOT":0.00016045,"MEAN_MOTION_DDOT":0},{"OBJECT_NAME":"LEMUR-2-DEMBITZ","OBJECT_ID":"2017-042T","EPOCH":"2026-07-06T10:51:09.921888","CLASSIFICATION_TYPE":"U","MEAN_MOTION":15.30918269,"ECCENTRICITY":0.0005291,"INCLINATION":97.3834,"RA_OF_ASC_NODE":8.9463,"ARG_OF_PERICENTER":313.9812,"MEAN_ANOMALY":46.0993,"EPHEMERIS_TYPE":0,"NORAD_CAT_ID":42842,"ELEMENT_SET_NO":999,"REV_AT_EPOCH":49129,"BSTAR":0.00057818256,"MEAN_MOTION_DOT":0.00017223,"MEAN_MOTION_DDOT":0},{"OBJECT_NAME":"LEMUR-2-ZACHARY","OBJECT_ID":"2017-042W","EPOCH":"2026-07-07T18:26:52.963584","CLASSIFICATION_TYPE":"U","MEAN_MOTION":15.52194188,"ECCENTRICITY":0.0002324,"INCLINATION":97.3592,"RA_OF_ASC_NODE":20.8688,"ARG_OF_PERICENTER":287.1749,"MEAN_ANOMALY":72.9249,"EPHEMERIS_TYPE":0,"NORAD_CAT_ID":42845,"ELEMENT_SET_NO":999,"REV_AT_EPOCH":49239,"BSTAR":0.00059972,"MEAN_MOTION_DOT":0.00036347,"MEAN_MOTION_DDOT":0},{"OBJECT_NAME":"LEMUR-2-AMANDA-SVANTE","OBJECT_ID":"2021-034B","EPOCH":"2026-07-07T18:18:05.116608","CLASSIFICATION_TYPE":"U","MEAN_MOTION":15.35628121,"ECCENTRICITY":0.0004103,"INCLINATION":97.5748,"RA_OF_ASC_NODE":267.6079,"ARG_OF_PERICENTER":160.6097,"MEAN_ANOMALY":199.5303,"EPHEMERIS_TYPE":0,"NORAD_CAT_ID":48269,"ELEMENT_SET_NO":999,"REV_AT_EPOCH":28421,"BSTAR":0.0006741,"MEAN_MOTION_DOT":0.00023316,"MEAN_MOTION_DDOT":0},{"OBJECT_NAME":"LEMUR-2-SPECIAL-K","OBJECT_ID":"2021-034F","EPOCH":"2026-07-07T18:21:55.147104","CLASSIFICATION_TYPE":"U","MEAN_MOTION":15.7200003,"ECCENTRICITY":0.0005799,"INCLINATION":97.5628,"RA_OF_ASC_NODE":277.2182,"ARG_OF_PERICENTER":219.6386,"MEAN_ANOMALY":140.4453,"EPHEMERIS_TYPE":0,"NORAD_CAT_ID":48273,"ELEMENT_SET_NO":999,"REV_AT_EPOCH":28491,"BSTAR":0.001322,"MEAN_MOTION_DOT":0.0017574,"MEAN_MOTION_DDOT":0},{"OBJECT_NAME":"LEMUR-2-EMBRIONOVIS","OBJECT_ID":"2023-084AQ","EPOCH":"2026-07-07T08:57:42.516000","CLASSIFICATION_TYPE":"U","MEAN_MOTION":15.38085565,"ECCENTRICITY":0.00077512,"INCLINATION":97.6318,"RA_OF_ASC_NODE":333.3577,"ARG_OF_PERICENTER":236.9428,"MEAN_ANOMALY":123.1072,"EPHEMERIS_TYPE":0,"NORAD_CAT_ID":56970,"ELEMENT_SET_NO":999,"REV_AT_EPOCH":17078,"BSTAR":0.00026323363,"MEAN_MOTION_DOT":0.0000979,"MEAN_MOTION_DDOT":0},{"OBJECT_NAME":"LEMUR-2-DEVERILL-M-T","OBJECT_ID":"2023-100F","EPOCH":"2026-07-07T16:45:47.686176","CLASSIFICATION_TYPE":"U","MEAN_MOTION":15.40821036,"ECCENTRICITY":0.0004797,"INCLINATION":99.446,"RA_OF_ASC_NODE":233.3957,"ARG_OF_PERICENTER":329.3522,"MEAN_ANOMALY":30.7437,"EPHEMERIS_TYPE":0,"NORAD_CAT_ID":57391,"ELEMENT_SET_NO":999,"REV_AT_EPOCH":16440,"BSTAR":0.0003957,"MEAN_MOTION_DOT":0.00016121,"MEAN_MOTION_DDOT":0},{"OBJECT_NAME":"LEMUR-2-BASS","OBJECT_ID":"2023-174D","EPOCH":"2026-07-07T18:17:40.155648","CLASSIFICATION_TYPE":"U","MEAN_MOTION":15.43815088,"ECCENTRICITY":0.0007968,"INCLINATION":97.384,"RA_OF_ASC_NODE":273.7712,"ARG_OF_PERICENTER":100.4871,"MEAN_ANOMALY":259.7275,"EPHEMERIS_TYPE":0,"NORAD_CAT_ID":58259,"ELEMENT_SET_NO":999,"REV_AT_EPOCH":14853,"BSTAR":0.00026567,"MEAN_MOTION_DOT":0.00011961,"MEAN_MOTION_DDOT":0},{"OBJECT_NAME":"LEMUR-2-JK0903EM1407","OBJECT_ID":"2023-174CJ","EPOCH":"2026-07-07T18:33:20.138400","CLASSIFICATION_TYPE":"U","MEAN_MOTION":15.5278471,"ECCENTRICITY":0.000424,"INCLINATION":97.3916,"RA_OF_ASC_NODE":279.8389,"ARG_OF_PERICENTER":57.684,"MEAN_ANOMALY":302.4823,"EPHEMERIS_TYPE":0,"NORAD_CAT_ID":58336,"ELEMENT_SET_NO":999,"REV_AT_EPOCH":14892,"BSTAR":0.00030614,"MEAN_MOTION_DOT":0.00018867,"MEAN_MOTION_DDOT":0},{"OBJECT_NAME":"LEMUR-2-MJR092620","OBJECT_ID":"2023-174CN","EPOCH":"2026-07-07T18:02:01.069728","CLASSIFICATION_TYPE":"U","MEAN_MOTION":15.45666061,"ECCENTRICITY":0.000604,"INCLINATION":97.3969,"RA_OF_ASC_NODE":279.1695,"ARG_OF_PERICENTER":54.9208,"MEAN_ANOMALY":305.2607,"EPHEMERIS_TYPE":0,"NORAD_CAT_ID":58340,"ELEMENT_SET_NO":999,"REV_AT_EPOCH":14882,"BSTAR":0.00027774,"MEAN_MOTION_DOT":0.00013318,"MEAN_MOTION_DDOT":0},{"OBJECT_NAME":"LEMUR-2-NIMBUS2000","OBJECT_ID":"2024-022A","EPOCH":"2026-07-07T00:31:18.539904","CLASSIFICATION_TYPE":"U","MEAN_MOTION":15.40867104,"ECCENTRICITY":0.00095303,"INCLINATION":97.4093,"RA_OF_ASC_NODE":38.2803,"ARG_OF_PERICENTER":55.1826,"MEAN_ANOMALY":305.0316,"EPHEMERIS_TYPE":0,"NORAD_CAT_ID":58899,"ELEMENT_SET_NO":999,"REV_AT_EPOCH":13532,"BSTAR":0.00040709295,"MEAN_MOTION_DOT":0.00016668,"MEAN_MOTION_DDOT":0}]}
